HIMAWARI-8              
1 40267U 14060A   24027.53452631 -.00000271  00000+0  00000+0 0  9993
2 40267   0.0435 239.5059 0000941  49.0710 170.7889  1.00273939 34125
